[{"OBJECT_NAME":"KUIPER-00111","OBJECT_ID":"2025-171T","EPOCH":"2026-03-09T14:14:15.751104","MEAN_MOTION":14.79893815,"ECCENTRICITY":4.26e-5,"INCLINATION":51.8975,"RA_OF_ASC_NODE":173.4705,"ARG_OF_PERICENTER":154.7483,"MEAN_ANOMALY":205.35,"EPHEMERIS_TYPE":0,"CLASSIFICATION_TYPE":"U","NORAD_CAT_ID":65149,"ELEMENT_SET_NO":999,"REV_AT_EPOCH":3266,"BSTAR":-0.0031823,"MEAN_MOTION_DOT":-0.0002437,"MEAN_MOTION_DDOT":0},{"OBJECT_NAME":"NOAA 16 DEB","OBJECT_ID":"2000-055BD","EPOCH":"2026-03-09T18:39:37.734048","MEAN_MOTION":14.80724367,"ECCENTRICITY":0.00275677,"INCLINATION":98.997,"RA_OF_ASC_NODE":4.8082,"ARG_OF_PERICENTER":229.8515,"MEAN_ANOMALY":130.0279,"EPHEMERIS_TYPE":0,"CLASSIFICATION_TYPE":"U","NORAD_CAT_ID":41094,"ELEMENT_SET_NO":999,"REV_AT_EPOCH":53865,"BSTAR":0.004036688,"MEAN_MOTION_DOT":0.00031339,"MEAN_MOTION_DDOT":0}]
